[{"OBJECT_NAME":"IRIDIUM 33 DEB","OBJECT_ID":"1997-051GC","EPOCH":"2026-03-03T18:08:39.411744","MEAN_MOTION":14.43370916,"ECCENTRICITY":0.0029253,"INCLINATION":86.3484,"RA_OF_ASC_NODE":337.5123,"ARG_OF_PERICENTER":219.93,"MEAN_ANOMALY":168.9584,"EPHEMERIS_TYPE":0,"CLASSIFICATION_TYPE":"U","NORAD_CAT_ID":34487,"ELEMENT_SET_NO":999,"REV_AT_EPOCH":89417,"BSTAR":0.00025105,"MEAN_MOTION_DOT":8.71e-6,"MEAN_MOTION_DDOT":0},{"OBJECT_NAME":"IRIDIUM 33 DEB","OBJECT_ID":"1997-051GD","EPOCH":"2026-02-22T01:06:52.109280","MEAN_MOTION":15.78089963,"ECCENTRICITY":0.00047702,"INCLINATION":86.3081,"RA_OF_ASC_NODE":269.542,"ARG_OF_PERICENTER":70.8002,"MEAN_ANOMALY":289.3788,"EPHEMERIS_TYPE":0,"CLASSIFICATION_TYPE":"U","NORAD_CAT_ID":34488,"ELEMENT_SET_NO":999,"REV_AT_EPOCH":90341,"BSTAR":0.0064727089,"MEAN_MOTION_DOT":0.01238203,"MEAN_MOTION_DDOT":0},{"OBJECT_NAME":"IRIDIUM 33 DEB","OBJECT_ID":"1997-051GH","EPOCH":"2026-03-03T15:12:33.619680","MEAN_MOTION":14.27603126,"ECCENTRICITY":0.0186973,"INCLINATION":86.4708,"RA_OF_ASC_NODE":301.8898,"ARG_OF_PERICENTER":339.1012,"MEAN_ANOMALY":48.8875,"EPHEMERIS_TYPE":0,"CLASSIFICATION_TYPE":"U","NORAD_CAT_ID":34492,"ELEMENT_SET_NO":999,"REV_AT_EPOCH":86212,"BSTAR":0.0050088,"MEAN_MOTION_DOT":0.00014887,"MEAN_MOTION_DDOT":0},{"OBJECT_NAME":"IRIDIUM 33 DEB","OBJECT_ID":"1997-051GN","EPOCH":"2026-03-03T08:15:19.478880","MEAN_MOTION":14.27752546,"ECCENTRICITY":0.00824038,"INCLINATION":86.2804,"RA_OF_ASC_NODE":17.9487,"ARG_OF_PERICENTER":78.5013,"MEAN_ANOMALY":72.868,"EPHEMERIS_TYPE":0,"CLASSIFICATION_TYPE":"U","NORAD_CAT_ID":34497,"ELEMENT_SET_NO":999,"REV_AT_EPOCH":88033,"BSTAR":0.00094382095,"MEAN_MOTION_DOT":2.434e-5,"MEAN_MOTION_DDOT":0},{"OBJECT_NAME":"IRIDIUM 33 DEB","OBJECT_ID":"1997-051GZ","EPOCH":"2026-03-03T11:50:58.043904","MEAN_MOTION":14.39076456,"ECCENTRICITY":0.00617665,"INCLINATION":86.3655,"RA_OF_ASC_NODE":68.3662,"ARG_OF_PERICENTER":268.6215,"MEAN_ANOMALY":90.7907,"EPHEMERIS_TYPE":0,"CLASSIFICATION_TYPE":"U","NORAD_CAT_ID":34508,"ELEMENT_SET_NO":999,"REV_AT_EPOCH":88470,"BSTAR":0.0013292366,"MEAN_MOTION_DOT":4.218e-5,"MEAN_MOTION_DDOT":0},{"OBJECT_NAME":"IRIDIUM 33 DEB","OBJECT_ID":"1997-051HN","EPOCH":"2026-03-03T13:52:48.124128","MEAN_MOTION":14.64553271,"ECCENTRICITY":0.0005092,"INCLINATION":86.3835,"RA_OF_ASC_NODE":354.9306,"ARG_OF_PERICENTER":22.5985,"MEAN_ANOMALY":337.5451,"EPHEMERIS_TYPE":0,"CLASSIFICATION_TYPE":"U","NORAD_CAT_ID":34521,"ELEMENT_SET_NO":999,"REV_AT_EPOCH":89655,"BSTAR":0.0018222,"MEAN_MOTION_DOT":9.692e-5,"MEAN_MOTION_DDOT":0},{"OBJECT_NAME":"IRIDIUM 33 DEB","OBJECT_ID":"1997-051HS","EPOCH":"2026-03-03T15:02:11.253696","MEAN_MOTION":14.43153603,"ECCENTRICITY":0.0004461,"INCLINATION":86.3766,"RA_OF_ASC_NODE":12.3063,"ARG_OF_PERICENTER":154.6763,"MEAN_ANOMALY":327.4481,"EPHEMERIS_TYPE":0,"CLASSIFICATION_TYPE":"U","NORAD_CAT_ID":34525,"ELEMENT_SET_NO":999,"REV_AT_EPOCH":89254,"BSTAR":0.00051404,"MEAN_MOTION_DOT":1.745e-5,"MEAN_MOTION_DDOT":0},{"OBJECT_NAME":"IRIDIUM 33 DEB","OBJECT_ID":"1997-051HW","EPOCH":"2026-03-03T19:48:08.772192","MEAN_MOTION":14.40728752,"ECCENTRICITY":0.0003384,"INCLINATION":86.369,"RA_OF_ASC_NODE":0.846,"ARG_OF_PERICENTER":317.5123,"MEAN_ANOMALY":42.5814,"EPHEMERIS_TYPE":0,"CLASSIFICATION_TYPE":"U","NORAD_CAT_ID":34529,"ELEMENT_SET_NO":999,"REV_AT_EPOCH":89309,"BSTAR":0.0002705,"MEAN_MOTION_DOT":8.84e-6,"MEAN_MOTION_DDOT":0},{"OBJECT_NAME":"IRIDIUM 33 DEB","OBJECT_ID":"1997-051JF","EPOCH":"2026-03-03T17:45:32.584608","MEAN_MOTION":14.43240198,"ECCENTRICITY":0.0036581,"INCLINATION":86.2803,"RA_OF_ASC_NODE":330.0795,"ARG_OF_PERICENTER":57.6647,"MEAN_ANOMALY":3.5028,"EPHEMERIS_TYPE":0,"CLASSIFICATION_TYPE":"U","NORAD_CAT_ID":34538,"ELEMENT_SET_NO":999,"REV_AT_EPOCH":88924,"BSTAR":0.0010751,"MEAN_MOTION_DOT":3.665e-5,"MEAN_MOTION_DDOT":0},{"OBJECT_NAME":"IRIDIUM 33 DEB","OBJECT_ID":"1997-051JH","EPOCH":"2026-03-03T01:30:23.423904","MEAN_MOTION":14.77248539,"ECCENTRICITY":0.0014424,"INCLINATION":86.3053,"RA_OF_ASC_NODE":270.8228,"ARG_OF_PERICENTER":249.0869,"MEAN_ANOMALY":233.3046,"EPHEMERIS_TYPE":0,"CLASSIFICATION_TYPE":"U","NORAD_CAT_ID":34540,"ELEMENT_SET_NO":999,"REV_AT_EPOCH":90206,"BSTAR":0.0014812909,"MEAN_MOTION_DOT":0.00010546,"MEAN_MOTION_DDOT":0},{"OBJECT_NAME":"IRIDIUM 33 DEB","OBJECT_ID":"1997-051JZ","EPOCH":"2026-03-03T12:27:00.491616","MEAN_MOTION":14.13320435,"ECCENTRICITY":0.0176101,"INCLINATION":86.3888,"RA_OF_ASC_NODE":249.2844,"ARG_OF_PERICENTER":42.7162,"MEAN_ANOMALY":318.7556,"EPHEMERIS_TYPE":0,"CLASSIFICATION_TYPE":"U","NORAD_CAT_ID":34648,"ELEMENT_SET_NO":999,"REV_AT_EPOCH":86101,"BSTAR":0.0036101329,"MEAN_MOTION_DOT":7.87e-5,"MEAN_MOTION_DDOT":0},{"OBJECT_NAME":"IRIDIUM 33 DEB","OBJECT_ID":"1997-051KC","EPOCH":"2026-03-03T03:11:52.698048","MEAN_MOTION":14.27173302,"ECCENTRICITY":0.01319837,"INCLINATION":86.2787,"RA_OF_ASC_NODE":106.321,"ARG_OF_PERICENTER":305.0977,"MEAN_ANOMALY":53.7897,"EPHEMERIS_TYPE":0,"CLASSIFICATION_TYPE":"U","NORAD_CAT_ID":34651,"ELEMENT_SET_NO":999,"REV_AT_EPOCH":87042,"BSTAR":0.0027748788,"MEAN_MOTION_DOT":7.447e-5,"MEAN_MOTION_DDOT":0},{"OBJECT_NAME":"IRIDIUM 33 DEB","OBJECT_ID":"1997-051KD","EPOCH":"2026-03-03T16:36:26.735040","MEAN_MOTION":14.62914267,"ECCENTRICITY":0.0029008,"INCLINATION":86.3295,"RA_OF_ASC_NODE":303.9474,"ARG_OF_PERICENTER":22.9599,"MEAN_ANOMALY":32.4891,"EPHEMERIS_TYPE":0,"CLASSIFICATION_TYPE":"U","NORAD_CAT_ID":34652,"ELEMENT_SET_NO":999,"REV_AT_EPOCH":89667,"BSTAR":0.00092811,"MEAN_MOTION_DOT":4.797e-5,"MEAN_MOTION_DDOT":0},{"OBJECT_NAME":"IRIDIUM 33 DEB","OBJECT_ID":"1997-051KM","EPOCH":"2026-03-03T07:31:49.004832","MEAN_MOTION":14.55432372,"ECCENTRICITY":0.00124385,"INCLINATION":86.3815,"RA_OF_ASC_NODE":1.9633,"ARG_OF_PERICENTER":99.4454,"MEAN_ANOMALY":54.0909,"EPHEMERIS_TYPE":0,"CLASSIFICATION_TYPE":"U","NORAD_CAT_ID":34690,"ELEMENT_SET_NO":999,"REV_AT_EPOCH":89266,"BSTAR":0.00048697869,"MEAN_MOTION_DOT":2.139e-5,"MEAN_MOTION_DDOT":0},{"OBJECT_NAME":"IRIDIUM 33 DEB","OBJECT_ID":"1997-051KQ","EPOCH":"2026-02-24T23:46:27.128064","MEAN_MOTION":15.78525,"ECCENTRICITY":0.00039393,"INCLINATION":86.2833,"RA_OF_ASC_NODE":265.9163,"ARG_OF_PERICENTER":44.5223,"MEAN_ANOMALY":315.6368,"EPHEMERIS_TYPE":0,"CLASSIFICATION_TYPE":"U","NORAD_CAT_ID":34693,"ELEMENT_SET_NO":999,"REV_AT_EPOCH":90061,"BSTAR":0.0068576941,"MEAN_MOTION_DOT":0.01322234,"MEAN_MOTION_DDOT":0},{"OBJECT_NAME":"IRIDIUM 33 DEB","OBJECT_ID":"1997-051KT","EPOCH":"2026-03-03T18:50:19.529664","MEAN_MOTION":14.71841744,"ECCENTRICITY":0.0057889,"INCLINATION":86.1826,"RA_OF_ASC_NODE":349.629,"ARG_OF_PERICENTER":253.5917,"MEAN_ANOMALY":136.5957,"EPHEMERIS_TYPE":0,"CLASSIFICATION_TYPE":"U","NORAD_CAT_ID":34696,"ELEMENT_SET_NO":999,"REV_AT_EPOCH":87862,"BSTAR":0.0073206,"MEAN_MOTION_DOT":0.00047274,"MEAN_MOTION_DDOT":0}]
